[{"OBJECT_NAME":"CELESTIS-17 & SHERPA-FX1","OBJECT_ID":"2021-006CB","EPOCH":"2026-03-09T15:26:05.078112","MEAN_MOTION":15.30994801,"ECCENTRICITY":0.000663,"INCLINATION":97.2397,"RA_OF_ASC_NODE":112.1052,"ARG_OF_PERICENTER":178.1385,"MEAN_ANOMALY":181.9882,"EPHEMERIS_TYPE":0,"CLASSIFICATION_TYPE":"U","NORAD_CAT_ID":47486,"ELEMENT_SET_NO":999,"REV_AT_EPOCH":28406,"BSTAR":0.00024301,"MEAN_MOTION_DOT":7.207e-5,"MEAN_MOTION_DDOT":0},{"OBJECT_NAME":"STARLINK-32308","OBJECT_ID":"2024-193C","EPOCH":"2026-03-09T10:42:46.126080","MEAN_MOTION":15.30190514,"ECCENTRICITY":0.00011015,"INCLINATION":53.1602,"RA_OF_ASC_NODE":91.8332,"ARG_OF_PERICENTER":88.1273,"MEAN_ANOMALY":271.9854,"EPHEMERIS_TYPE":0,"CLASSIFICATION_TYPE":"U","NORAD_CAT_ID":61663,"ELEMENT_SET_NO":999,"REV_AT_EPOCH":7649,"BSTAR":0.00016241551,"MEAN_MOTION_DOT":4.453e-5,"MEAN_MOTION_DDOT":0}]
